     2.10           G: GLONASS NAV DATA                     RINEX VERSION / TYPE
teqc  2015Jun23                         20210813 01:25:45UTCPGM / RUN BY / DATE
Linux 2.4.21-27.ELsmp|Opteron|gcc -static|Linux x86_64|=+   COMMENT
  2021     7    20    8.381903171539D-09                    CORR TO SYSTEM TIME
                                                            END OF HEADER
21 21  7 21 19 15  0.0-2.255840227008D-04-2.728484105319D-12 6.840000000000D+04
   -3.897333984375D+03-2.303636550903D+00 3.725290298462D-09 0.000000000000D+00
    1.409378955078D+04 1.706956863403D+00 1.862645149231D-09 4.000000000000D+00
   -2.091693994141D+04 1.576934814453D+00 0.000000000000D+00 0.000000000000D+00
 6 21  7 21 19 45  0.0 2.018632367253D-04 0.000000000000D+00 7.020000000000D+04
   -5.370702636719D+03-5.343799591064D-01 3.725290298462D-09 0.000000000000D+00
    1.629537548828D+04-2.528006553650D+00 9.313225746155D-10-4.000000000000D+00
   -1.887533447266D+04-2.033201217651D+00 9.313225746155D-10 0.000000000000D+00
 8 21  7 21 19 45  0.0-6.002373993397D-05 0.000000000000D+00 7.020000000000D+04
    1.018945214844D+04 4.848136901855D-01 1.862645149231D-09 0.000000000000D+00
    2.015633642578D+04 1.551542282104D+00 0.000000000000D+00 6.000000000000D+00
    1.189220117188D+04-3.061165809631D+00-3.725290298462D-09 0.000000000000D+00
 7 21  7 21 19 45  0.0-4.195049405098D-05-0.000000000000D+00 7.020000000000D+04
    3.248428710938D+03 2.059745788574D-02 4.656612873077D-09 0.000000000000D+00
    2.486400146484D+04-6.441211700439D-01 9.313225746155D-10 5.000000000000D+00
   -4.517241210938D+03-3.504890441895D+00-1.862645149231D-09 0.000000000000D+00
10 21  7 21 19 45  0.0-7.314886897802D-05-0.000000000000D+00 7.020000000000D+04
    2.600251464844D+03-2.925112724304D+00-9.313225746155D-10 0.000000000000D+00
    1.194830175781D+04-9.156847000122D-01-1.862645149231D-09-7.000000000000D+00
    2.237508105469D+04 8.348140716553D-01-2.793967723846D-09 0.000000000000D+00
20 21  7 21 19 45  0.0-5.285907536745D-05-0.000000000000D+00 7.020000000000D+04
   -1.955964404297D+04 2.100925445557D-01 0.000000000000D+00 0.000000000000D+00
    1.633757568359D+04 1.541051864624D-01-2.793967723846D-09 2.000000000000D+00
    4.405087890625D+02 3.615153312683D+00 0.000000000000D+00 0.000000000000D+00
21 21  7 21 19 45  0.0-2.255886793137D-04-2.728484105319D-12 7.020000000000D+04
   -7.478658691406D+03-1.655676841736D+00 3.725290298462D-09 0.000000000000D+00
    1.720479101562D+04 1.703853607178D+00 0.000000000000D+00 4.000000000000D+00
   -1.730789013672D+04 2.407094955444D+00 0.000000000000D+00 0.000000000000D+00
 6 21  7 21 20 15  0.0 2.018650993705D-04 0.000000000000D+00 7.200000000000D+04
   -6.781766113281D+03-1.037081718445D+00 2.793967723846D-09 0.000000000000D+00
    1.146443310547D+04-2.790448188782D+00 0.000000000000D+00-4.000000000000D+00
   -2.175831738281D+04-1.149396896362D+00 1.862645149231D-09 0.000000000000D+00
 8 21  7 21 20 15  0.0-6.002373993397D-05-0.000000000000D+00 7.200000000000D+04
    1.104665283203D+04 4.257736206055D-01 2.793967723846D-09 0.000000000000D+00
    2.220040527344D+04 7.104978561401D-01 0.000000000000D+00 6.000000000000D+00
    5.994084960938D+03-3.449898719788D+00-3.725290298462D-09 0.000000000000D+00
 7 21  7 21 20 15  0.0-4.195142537355D-05-0.000000000000D+00 7.200000000000D+04
    2.971523925781D+03-3.606433868408D-01 4.656612873077D-09 0.000000000000D+00
    2.298453125000D+04-1.416957855225D+00 0.000000000000D+00 5.000000000000D+00
   -1.056890283203D+04-3.175300598145D+00-9.313225746155D-10 0.000000000000D+00
20 21  7 21 20 15  0.0-5.286093801260D-05-0.000000000000D+00 7.200000000000D+04
   -1.860889062500D+04 8.107109069824D-01-0.000000000000D+00 0.000000000000D+00
    1.601761230469D+04-5.341634750366D-01-2.793967723846D-09 2.000000000000D+00
    6.846442382812D+03 3.456223487854D+00 0.000000000000D+00 0.000000000000D+00
21 21  7 21 20 15  0.0-2.255933359265D-04-2.728484105319D-12 7.200000000000D+04
   -9.820457519531D+03-9.457206726074D-01 2.793967723846D-09 0.000000000000D+00
    2.005740576172D+04 1.418576240540D+00-9.313225746155D-10 4.000000000000D+00
   -1.236321435547D+04 3.051374435425D+00 0.000000000000D+00 0.000000000000D+00
10 21  7 21 20 15  0.0-7.314980030060D-05-0.000000000000D+00 7.233000000000D+04
   -2.874507324219D+03-3.108736038208D+00-1.862645149231D-09 0.000000000000D+00
    1.066413964844D+04-4.957876205444D-01-1.862645149231D-09-7.000000000000D+00
    2.299284667969D+04-1.526775360107D-01-1.862645149231D-09 0.000000000000D+00
22 21  7 21 20 15  0.0-1.238361001015D-04-1.818989403546D-12 7.278000000000D+04
    3.092104003906D+03-1.967384338379D+00 4.656612873077D-09 0.000000000000D+00
    1.172814062500D+04 2.363786697388D+00 1.862645149231D-09-3.000000000000D+00
   -2.244614501953D+04 9.730606079102D-01 0.000000000000D+00 0.000000000000D+00
 6 21  7 21 20 45  0.0 2.018660306931D-04 0.000000000000D+00 7.380000000000D+04
   -9.084537597656D+03-1.507102012634D+00 1.862645149231D-09 0.000000000000D+00
    6.429308105469D+03-2.755205154419D+00-0.000000000000D+00-4.000000000000D+00
   -2.296000732422D+04-1.772241592407D-01 2.793967723846D-09 0.000000000000D+00
 7 21  7 21 20 45  0.0-4.195142537355D-05-0.000000000000D+00 7.380000000000D+04
    1.856583496094D+03-8.967218399048D-01 4.656612873077D-09 0.000000000000D+00
    1.988778857422D+04-1.982889175415D+00-0.000000000000D+00 5.000000000000D+00
   -1.579984130859D+04-2.598902702332D+00-0.000000000000D+00 0.000000000000D+00
 8 21  7 21 20 45  0.0-6.002373993397D-05-0.000000000000D+00 7.380000000000D+04
    1.157239990234D+04 1.185379028320D-01 3.725290298462D-09 0.000000000000D+00
    2.271638720703D+04-1.268806457520D-01-0.000000000000D+00 6.000000000000D+00
   -3.672670898438D+02-3.572378158569D+00-2.793967723846D-09 0.000000000000D+00
20 21  7 21 20 45  0.0-5.286280065775D-05-0.000000000000D+00 7.380000000000D+04
   -1.678811328125D+04 1.167740821838D+00-1.862645149231D-09 0.000000000000D+00
    1.435790771484D+04-1.316229820251D+00-2.793967723846D-09 2.000000000000D+00
    1.272183691406D+04 3.029533386230D+00 0.000000000000D+00 0.000000000000D+00
21 21  7 21 20 45  0.0-2.255979925394D-04-2.728484105319D-12 7.380000000000D+04
   -1.091550000000D+04-2.890548706055D-01 1.862645149231D-09 0.000000000000D+00
    2.215105175781D+04 8.671302795410D-01-1.862645149231D-09 4.000000000000D+00
   -6.464583984375D+03 3.460190773010D+00 0.000000000000D+00 0.000000000000D+00
22 21  7 21 20 45  0.0-1.238398253918D-04-1.818989403546D-12 7.380000000000D+04
    5.292480468750D+01-1.393451690674D+00 3.725290298462D-09 0.000000000000D+00
    1.600618603516D+04 2.340180397034D+00-0.000000000000D+00-3.000000000000D+00
   -1.984974218750D+04 1.893366813660D+00 0.000000000000D+00 0.000000000000D+00
 1 21  7 21 20 45  0.0 8.263252675533D-05 0.000000000000D+00 7.428000000000D+04
    1.562488964844D+04 1.022001266479D+00 1.862645149231D-09 0.000000000000D+00
    1.452025732422D+04 1.624806404114D+00 0.000000000000D+00 1.000000000000D+00
    1.400383642578D+04-2.823906898499D+00-3.725290298462D-09 0.000000000000D+00
 8 21  7 21 21 15  0.0-6.002373993397D-05-0.000000000000D+00 7.560000000000D+04
    1.134425878906D+04-4.025573730469D-01 4.656612873077D-09 0.000000000000D+00
    2.181334863281D+04-8.487825393677D-01-0.000000000000D+00 6.000000000000D+00
   -6.700054199219D+03-3.418216705322D+00-1.862645149231D-09 0.000000000000D+00
20 21  7 21 21 15  0.0-5.286373198032D-05-0.000000000000D+00 7.560000000000D+04
   -1.457088916016D+04 1.249942779541D+00-3.725290298462D-09 0.000000000000D+00
    1.129252880859D+04-2.076037406921D+00-2.793967723846D-09 2.000000000000D+00
    1.761172021484D+04 2.368384361267D+00 0.000000000000D+00 0.000000000000D+00
 1 21  7 21 21 15  0.0 8.263438940048D-05 0.000000000000D+00 7.560000000000D+04
    1.729728466797D+04 7.928810119629D-01 2.793967723846D-09 0.000000000000D+00
    1.675108251953D+04 8.514194488525D-01-0.000000000000D+00 1.000000000000D+00
    8.445535156250D+03-3.311918258667D+00-3.725290298462D-09 0.000000000000D+00
 7 21  7 21 21 15  0.0-4.195235669613D-05-0.000000000000D+00 7.560000000000D+04
   -2.924360351562D+02-1.491909027100D+00 3.725290298462D-09 0.000000000000D+00
    1.600908105469D+04-2.278727531433D+00-0.000000000000D+00 5.000000000000D+00
   -1.980342333984D+04-1.820495605469D+00 9.313225746155D-10 0.000000000000D+00
21 21  7 21 21 15  0.0-2.256026491523D-04-2.728484105319D-12 7.560000000000D+04
   -1.095478564453D+04 2.124176025391D-01-0.000000000000D+00 0.000000000000D+00
    2.305509472656D+04 1.102552413940D-01-2.793967723846D-09 4.000000000000D+00
   -6.712890625000D+01 3.602028846741D+00 0.000000000000D+00 0.000000000000D+00
22 21  7 21 21 15  0.0-1.238435506821D-04-1.818989403546D-12 7.560000000000D+04
   -1.901028808594D+03-7.807846069336D-01 3.725290298462D-09 0.000000000000D+00
    1.997188818359D+04 2.016698837280D+00-9.313225746155D-10-3.000000000000D+00
   -1.571727783203D+04 2.668611526489D+00 0.000000000000D+00 0.000000000000D+00
10 21  7 21 21 15  0.0-7.314607501030D-05-0.000000000000D+00 7.608000000000D+04
   -1.345516796875D+04-2.574804306030D+00-3.725290298462D-09 0.000000000000D+00
    1.048996142578D+04 3.539752960205D-01-2.793967723846D-09-7.000000000000D+00
    1.898762109375D+04-2.013858795166D+00 0.000000000000D+00 0.000000000000D+00
 8 21  7 21 21 45  0.0-6.002467125654D-05-0.000000000000D+00 7.740000000000D+04
    1.003888671875D+04-1.063212394714D+00 4.656612873077D-09 0.000000000000D+00
    1.978530126953D+04-1.364344596863D+00-9.313225746155D-10 6.000000000000D+00
   -1.251313720703D+04-2.998577117920D+00-9.313225746155D-10 0.000000000000D+00
21 21  7 21 21 45  0.0-2.256073057652D-04-2.728484105319D-12 7.740000000000D+04
   -1.028785986328D+04 4.868726730347D-01-9.313225746155D-10 0.000000000000D+00
    2.248196826172D+04-7.559394836426D-01-2.793967723846D-09 4.000000000000D+00
    6.335490722656D+03 3.465871810913D+00 0.000000000000D+00 0.000000000000D+00
